{
  "type": "FeatureCollection",
  "name": "India_Exclusive_Economic_Zone",
  "features": [
    {
      "type": "Feature",
      "properties": {
        "name": "India Exclusive Economic Zone (EEZ)",
        "sovereign": "India",
        "area_km2": 2305143,
        "description": "Maritime boundary of India's Exclusive Economic Zone covering the Arabian Sea, Bay of Bengal, and Andaman & Nicobar Islands."
      },
      "geometry": {
        "type": "MultiPolygon",
        "coordinates": [
          [
            [
              [68.0, 23.5],
              [68.0, 20.0],
              [65.0, 15.0],
              [65.0, 10.0],
              [71.0, 4.5],
              [77.0, 5.0],
              [79.0, 8.0],
              [80.0, 10.0],
              [82.0, 12.0],
              [85.0, 15.0],
              [89.0, 18.0],
              [89.0, 21.5],
              [87.5, 21.5],
              [85.0, 19.5],
              [82.0, 16.5],
              [78.0, 13.0],
              [75.0, 11.0],
              [72.0, 15.0],
              [68.0, 23.5]
            ]
          ],
          [
            [
              [91.0, 14.0],
              [94.0, 14.0],
              [94.0, 6.0],
              [91.0, 6.0],
              [91.0, 14.0]
            ]
          ]
        ]
      }
    }
  ]
}
